NORAD_CAT_ID,OBJECT_NAME,OBJECT_TYPE,EPOCH,MEAN_MOTION,ECCENTRICITY,INCLINATION,RA_OF_ASC_NODE,ARG_OF_PERICENTER,MEAN_ANOMALY,BSTAR,MEAN_MOTION_DOT,MEAN_MOTION_DDOT,TLE_LINE0,TLE_LINE1,TLE_LINE2,SEMIMAJOR_AXIS,PERIOD,APOGEE,PERIGEE,DECAYED
51733.0,STARLINK-3525,PAYLOAD,2023-01-12 14:57:24,15.08846422,0.000273,53.2157,90.9525,32.5777,327.5383,0.00027706,4.125e-05,0.0,0 STARLINK-3525,1 51733U 22016V   23012.62319472  .00004125  00000-0  27706-3 0  9999,2 51733  53.2157  90.9525 0002730  32.5777 327.5383 15.08846422 49641,6917.861,95.437,541.614,537.837,0.0
51733.0,STARLINK-3525,PAYLOAD,2023-01-13 11:37:24,15.08844909,0.0002796999999999,53.2161,87.0887,32.1399,327.9763,0.00012755,1.742e-05,0.0,0 STARLINK-3525,1 51733U 22016V   23013.48431627  .00001742  00000-0  12755-3 0  9991,2 51733  53.2161  87.0887 0002797  32.1399 327.9763 15.08844909 50830,6917.865,95.437,541.665,537.795,0.0
51733.0,STARLINK-3525,PAYLOAD,2023-01-13 21:09:44,15.08840513,0.0002869,53.216,85.3045,31.9539,328.1627,3.2049e-05,2.22e-06,0.0,0 STARLINK-3525,1 51733U 22016V   23013.88175929  .00000222  00000-0  32049-4 0  9996,2 51733  53.2160  85.3045 0002869  31.9539 328.1627 15.08840513 49836,6917.879,95.438,541.729,537.759,0.0
51733.0,STARLINK-3525,PAYLOAD,2023-01-14 05:06:39,15.08834454,0.0003003,53.2159,83.8191,35.9997,324.1197,3.1092e-05,2.06e-06,0.0,0 STARLINK-3525,1 51733U 22016V   23014.21296183  .00000206  00000-0  31092-4 0  9999,2 51733  53.2159  83.8191 0003003  35.9997 324.1197 15.08834454 50941,6917.897,95.438,541.84,537.685,0.0
51733.0,STARLINK-3525,PAYLOAD,2023-01-14 14:38:57,15.0885351,0.0002683999999999,53.2162,82.0334,38.5279,321.5904,0.00023782,3.5e-05,0.0,0 STARLINK-3525,1 51733U 22016V   23014.61039126  .00003500  00000-0  23782-3 0  9991,2 51733  53.2162  82.0334 0002684  38.5279 321.5904 15.08853510 51000,6917.839,95.437,541.561,537.847,0.0
51733.0,STARLINK-3525,PAYLOAD,2023-01-14 21:00:31,15.08831017,0.0003081,53.2167,80.8424,44.2811,315.8427,3.1144e-05,2.07e-06,0.0,0 STARLINK-3525,1 51733U 22016V   23014.87536648  .00000207  00000-0  31144-4 0  9993,2 51733  53.2167  80.8424 0003081  44.2811 315.8427 15.08831017 51047,6917.908,95.438,541.904,537.641,0.0
51733.0,STARLINK-3525,PAYLOAD,2023-01-15 11:19:01,15.08812824,0.0002611,53.2163,78.1694,48.4847,311.6368,0.0010670999999999,0.00016723,0.0,0 STARLINK-3525,1 51733U 22016V   23015.47154136  .00016723  00000-0  10671-2 0  9998,2 51733  53.2163  78.1694 0002611  48.4847 311.6368 15.08812824 51138,6917.963000000001,95.439,541.635,538.0219999999999,0.0
51733.0,STARLINK-3525,PAYLOAD,2023-01-15 20:51:18,15.08848514,0.0002246,53.2168,76.3846,44.9785,315.1389,0.00029838,4.465e-05,0.0,0 STARLINK-3525,1 51733U 22016V   23015.86896135  .00004465  00000-0  29838-3 0  9999,2 51733  53.2168  76.3846 0002246  44.9785 315.1389 15.08848514 50134,6917.854,95.437,541.273,538.1659999999999,0.0
51733.0,STARLINK-3525,PAYLOAD,2023-01-16 00:02:04,15.08842006,0.0002298,53.2163,75.7889,49.9206,310.1987,0.00024836,3.667e-05,0.0,0 STARLINK-3525,1 51733U 22016V   23016.00144443  .00003667  00000-0  24836-3 0  9990,2 51733  53.2163  75.7889 0002298  49.9206 310.1987 15.08842006 51218,6917.874,95.437,541.3290000000001,538.15,0.0
51733.0,STARLINK-3525,PAYLOAD,2023-01-16 12:45:09,15.08870277,0.0002229,53.2162,73.4099,50.4915,309.6274,0.0010003,0.00015681,0.0,0 STARLINK-3525,1 51733U 22016V   23016.53135471  .00015681  00000-0  10003-2 0  9998,2 51733  53.2162  73.4099 0002229  50.4915 309.6274 15.08870277 51294,6917.7880000000005,95.436,541.195,538.111,0.0
51733.0,STARLINK-3525,PAYLOAD,2023-01-17 04:38:47,15.09495042,0.0005369,53.2162,70.4367,80.7914,279.3686,0.018932,0.00320716,0.0,0 STARLINK-3525,1 51733U 22016V   23017.19360121  .00320716  00000-0  18932-1 0  9999,2 51733  53.2162  70.4367 0005369  80.7914 279.3686 15.09495042 51397,6915.879,95.396,541.457,534.031,0.0
51733.0,STARLINK-3525,PAYLOAD,2023-01-17 14:11:21,15.08813653,0.0001766,53.2164,68.6524,77.2253,282.8937,0.00018509,2.657e-05,0.0,0 STARLINK-3525,1 51733U 22016V   23017.59121890  .00002657  00000-0  18509-3 0  9994,2 51733  53.2164  68.6524 0001766  77.2253 282.8937 15.08813653 51453,6917.960999999999,95.439,541.048,538.604,0.0
51733.0,STARLINK-3525,PAYLOAD,2023-01-17 17:22:07,15.08815841,0.0001955999999999,53.2155,68.0582,66.1519,293.9678,0.00036484,5.519e-05,0.0,0 STARLINK-3525,1 51733U 22016V   23017.72370158  .00005519  00000-0  36484-3 0  9994,2 51733  53.2155  68.0582 0001956  66.1519 293.9678 15.08815841 50415,6917.954000000001,95.439,541.172,538.466,0.0
51733.0,STARLINK-3525,PAYLOAD,2023-01-18 09:15:59,15.08869347,0.0001879,53.2158,65.0848,70.8831,289.2365,0.0022561,0.0003583,0.0,0 STARLINK-3525,1 51733U 22016V   23018.38610044  .00035830  00000-0  22561-2 0  9997,2 51733  53.2158  65.0848 0001879  70.8831 289.2365 15.08869347 51572,6917.791,95.436,540.956,538.356,0.0
51733.0,STARLINK-3525,PAYLOAD,2023-01-18 20:23:40,15.08870989,0.0001971,53.2161,63.0025,76.03,284.0912,0.00098368,0.00015415,0.0,0 STARLINK-3525,1 51733U 22016V   23018.84977317  .00015415  00000-0  98368-3 0  9993,2 51733  53.2161  63.0025 0001971  76.0300 284.0912 15.08870989 51646,6917.786,95.436,541.014,538.2869999999999,0.0
51733.0,STARLINK-3525,PAYLOAD,2023-01-19 09:06:44,15.08874484,0.0002121999999999,53.2163,60.6228,82.6443,277.47900000000004,0.000669,0.00010385,0.0,0 STARLINK-3525,1 51733U 22016V   23019.37968444  .00010385  00000-0  66900-3 0  9991,2 51733  53.2163  60.6228 0002122  82.6443 277.4790 15.08874484 51729,6917.775,95.435,541.1080000000001,538.172,0.0
51733.0,STARLINK-3525,PAYLOAD,2023-01-19 12:17:30,15.08889269,0.0001855,53.2163,60.0286,81.0365,279.0838,0.0014154,0.0002234,0.0,0 STARLINK-3525,1 51733U 22016V   23019.51215980  .00022340  00000-0  14154-2 0  9994,2 51733  53.2163  60.0286 0001855  81.0365 279.0838 15.08889269 50687,6917.73,95.434,540.878,538.312,0.0
51733.0,STARLINK-3525,PAYLOAD,2023-01-20 02:35:59,15.08865894,0.0003148,53.2165,57.3524,88.2107,271.9246,0.0013828,0.00021804,0.0,0 STARLINK-3525,1 51733U 22016V   23020.10832497  .00021804  00000-0  13828-2 0  9990,2 51733  53.2165  57.3524 0003148  88.2107 271.9246 15.08865894 51833,6917.801,95.436,541.844,537.489,0.0
51733.0,STARLINK-3525,PAYLOAD,2023-01-20 08:57:31,15.08844058,0.0001719,53.2168,56.1638,90.2401,269.8788,0.0014773,0.00023304,0.0,0 STARLINK-3525,1 51733U 22016V   23020.37328562  .00023304  00000-0  14773-2 0  9999,2 51733  53.2168  56.1638 0001719  90.2401 269.8788 15.08844058 51871,6917.868,95.437,540.922,538.544,0.0
51733.0,STARLINK-3525,PAYLOAD,2023-01-21 05:37:33,15.08840149,0.0001735,53.217,52.2978,83.0049,277.1141,0.0017398,0.0002751,0.0,0 STARLINK-3525,1 51733U 22016V   23021.23441492  .00027510  00000-0  17398-2 0  9992,2 51733  53.2170  52.2978 0001735  83.0049 277.1141 15.08840149 52002,6917.88,95.438,540.945,538.545,0.0
51733.0,STARLINK-3525,PAYLOAD,2023-01-21 11:59:05,15.08850331,0.0001761999999999,53.2158,51.1081,87.1533,272.9661,0.0011656,0.00018316,0.0,0 STARLINK-3525,1 51733U 22016V   23021.49937468  .00018316  00000-0  11656-2 0  9998,2 51733  53.2158  51.1081 0001762  87.1533 272.9661 15.08850331 52042,6917.849,95.437,540.933,538.495,0.0
51733.0,STARLINK-3525,PAYLOAD,2023-01-22 07:03:43,15.08847307,0.0001809,53.2162,47.5384,82.823,277.2967,0.00038843,5.9e-05,0.0,0 STARLINK-3525,1 51733U 22016V   23022.29425400  .00005900  00000-0  38843-3 0  9998,2 51733  53.2162  47.5384 0001809  82.8230 277.2967 15.08847307 52169,6917.858,95.437,540.974,538.472,0.0
51733.0,STARLINK-3525,PAYLOAD,2023-01-23 02:08:21,15.08832676,0.0001727,53.2158,43.9701,95.4283,264.6906,-0.00010288,-1.925e-05,0.0,0 STARLINK-3525,1 51733U 22016V   23023.08913635 -.00001925  00000-0 -10288-3 0  9996,2 51733  53.2158  43.9701 0001727  95.4283 264.6906 15.08832676 52283,6917.903,95.438,540.962,538.573,0.0
51733.0,STARLINK-3525,PAYLOAD,2023-01-24 06:45:18,15.08845397,0.0001686,53.2159,38.6178,100.5273,259.591,0.00021232,3.093e-05,0.0,0 STARLINK-3525,1 51733U 22016V   23024.28145866  .00003093  00000-0  21232-3 0  9999,2 51733  53.2159  38.6178 0001686 100.5273 259.5910 15.08845397 52466,6917.8640000000005,95.437,540.895,538.563,0.0
51733.0,STARLINK-3525,PAYLOAD,2023-01-24 19:28:23,15.08843407,0.0001576999999999,53.2156,36.2389,92.1264,267.9909,0.00039729,6.041e-05,0.0,0 STARLINK-3525,1 51733U 22016V   23024.81138205  .00006041  00000-0  39729-3 0  9993,2 51733  53.2156  36.2389 0001577  92.1264 267.9909 15.08843407 52546,6917.87,95.437,540.826,538.644,0.0
51733.0,STARLINK-3525,PAYLOAD,2023-01-25 08:11:28,15.08849078,0.0001463,53.2161,33.86,93.5361,266.5799,0.0003928,5.971e-05,0.0,0 STARLINK-3525,1 51733U 22016V   23025.34129996  .00005971  00000-0  39280-3 0  9992,2 51733  53.2161  33.8600 0001463  93.5361 266.5799 15.08849078 51561,6917.853,95.437,540.73,538.706,0.0
51733.0,STARLINK-3525,PAYLOAD,2023-01-25 17:43:47,15.08845539,0.0001516,53.216,32.0752,86.6073,273.5093,0.00027825,4.144e-05,0.0,0 STARLINK-3525,1 51733U 22016V   23025.73874193  .00004144  00000-0  27825-3 0  9994,2 51733  53.2160  32.0752 0001516  86.6073 273.5093 15.08845539 52688,6917.863,95.437,540.7769999999999,538.68,0.0
51733.0,STARLINK-3525,PAYLOAD,2023-01-26 09:37:38,15.08848476,0.0001519,53.2173,29.0993,93.7285,266.3881,0.00046341,7.097e-05,0.0,0 STARLINK-3525,1 51733U 22016V   23026.40114147  .00007097  00000-0  46341-3 0  9999,2 51733  53.2173  29.0993 0001519  93.7285 266.3881 15.08848476 51724,6917.854,95.437,540.77,538.669,0.0
51733.0,STARLINK-3525,PAYLOAD,2023-01-27 06:17:39,15.08850004,0.0001727,53.2169,25.2324,96.9673,263.1515,0.00039721,6.041e-05,0.0,0 STARLINK-3525,1 51733U 22016V   23027.26226008  .00006041  00000-0  39721-3 0  9996,2 51733  53.2169  25.2324 0001727  96.9673 263.1515 15.08850004 52913,6917.85,95.437,540.91,538.52,0.0
